QIANFAN-73              
1 63159U 25046A   25364.15864056  .00000209  00000+0  30540-3 0  9991
2 63159  88.9777 318.2204 0017000  74.0922 286.2101 13.50982145 49768
QIANFAN-74              
1 63160U 25046B   25364.14204774  .00000211  00000+0  30854-3 0  9998
2 63160  88.9777 318.1110 0001998  71.9888 288.1481 13.50979038 49827
QIANFAN-75              
1 63161U 25046C   25364.12929657  .00000254  00000+0  37430-3 0  9995
2 63161  88.9779 318.3461 0018157  76.6774 283.6400 13.50984806 49697
QIANFAN-76              
1 63162U 25046D   25364.12594481  .00000230  00000+0  33753-3 0  9997
2 63162  88.9778 318.3270 0015693  77.1947 283.0957 13.50984513 49703
QIANFAN-77              
1 63163U 25046E   25364.10222172  .00000646  00000+0  46075-3 0  9993
2 63163  88.9779 316.1941 0016344  32.8115 327.4073 13.96103377 50878
QIANFAN-78              
1 63164U 25046F   25364.16684133  .00000236  00000+0  34713-3 0  9990
2 63164  88.9777 318.1866 0017073  79.0947 281.2124 13.50982790 49787
QIANFAN-79              
1 63165U 25046G   25364.12141596  .00000233  00000+0  34117-3 0  9993
2 63165  88.9781 318.2995 0016770  77.6881 282.6147 13.50984548 49728
QIANFAN-80              
1 63166U 25046H   25364.13796162  .00000241  00000+0  35452-3 0  9992
2 63166  88.9779 318.0042 0015734  81.3191 278.9742 13.50982607 49882
